STARLINK-37017          
1 68108U 26044H   26079.50001157 -.01615469  00000+0 -94119-2 0  9991
2 68108  97.2846  40.1757 0001599 107.6684 191.3824 15.81350650  3095
STARLINK-36833          
1 68109U 26044J   26079.50001157 -.01677668  00000+0 -98615-2 0  9996
2 68109  97.2843  40.1781 0001543 116.3285 191.3167 15.81283438  3137
STARLINK-36830          
1 68110U 26044K   26079.50001157 -.01633044  00000+0 -95582-2 0  9998
2 68110  97.2844  40.1765 0000972 125.6614 177.7107 15.81294053  3133
STARLINK-36791          
1 68111U 26044L   26079.50001157 -.00555123  00000+0 -30521-2 0  9991
2 68111  97.2844  40.1810 0001313 108.3072 203.6301 15.81053269  3093
STARLINK-36893          
1 68112U 26044M   26079.50001157 -.00205346  00000+0 -10914-2 0  9995
2 68112  97.2843  40.1820 0001425  87.9506 228.2919 15.80921556  3137
STARLINK-36937          
1 68113U 26044N   26079.50001157 -.00814453  00000+0 -45967-2 0  9997
2 68113  97.2844  40.1857 0001106 119.1628 205.5950 15.81129339  3096
STARLINK-36229          
1 68114U 26044P   26079.50001157 -.00241013  00000+0 -12858-2 0  9997
2 68114  97.2842  40.1828 0001264 109.0158 211.5046 15.80929419  3138
STARLINK-36392          
1 68115U 26044Q   26079.50001157 -.00299300  00000+0 -16063-2 0  9992
2 68115  97.2843  40.1874 0001497 101.4765 227.5827 15.80944963  3134
STARLINK-36805          
1 68116U 26044R   26079.50001157 -.00976445  00000+0 -56040-2 0  9994
2 68116  97.2843  40.1888 0001134  96.7518 236.5467 15.81177431  3139
STARLINK-36844          
1 68117U 26044S   26079.50001157 -.00142015  00000+0 -74955-3 0  9999
2 68117  97.2840  40.1903 0001543  84.0734 253.5193 15.80909009  3092
STARLINK-36789          
1 68118U 26044T   26079.50001157 -.00526648  00000+0 -28896-2 0  9990
2 68118  97.2842  40.1922 0001097 103.7599 238.1106 15.81029344  3097
STARLINK-36850          
1 68119U 26044U   26079.50001157 -.01218636  00000+0 -70286-2 0  9997
2 68119  97.2841  40.1940 0001612  89.3126 256.8051 15.81219437  3095
STARLINK-36868          
1 68120U 26044V   26079.50001157 -.00176129  00000+0 -93428-3 0  9992
2 68120  97.2838  40.1959 0001499  88.5549 261.8936 15.80888421  3098
STARLINK-36855          
1 68121U 26044W   26079.50001157 -.00272338  00000+0 -14572-2 0  9994
2 68121  97.2840  40.1979 0001607  96.6185 258.0808 15.80943236  3093
STARLINK-36366          
1 68122U 26044X   26079.50001157 -.00824089  00000+0 -46597-2 0  9993
2 68122  97.2829  40.1993 0001327  85.5079 273.4500 15.81111565  3133
STARLINK-36922          
1 68123U 26044Y   26079.50001157 -.00055790  00000+0 -29194-3 0  9994
2 68123  97.2828  40.2034 0001646  94.7728 272.7768 15.80847798  3138
