[{"OBJECT_NAME":"STARLINK-37017","OBJECT_ID":"2026-044H","EPOCH":"2026-03-20T12:00:00.999648","MEAN_MOTION":15.8135065,"ECCENTRICITY":0.0001599,"INCLINATION":97.2846,"RA_OF_ASC_NODE":40.1757,"ARG_OF_PERICENTER":107.6684,"MEAN_ANOMALY":191.3824,"EPHEMERIS_TYPE":0,"CLASSIFICATION_TYPE":"U","NORAD_CAT_ID":68108,"ELEMENT_SET_NO":999,"REV_AT_EPOCH":309,"BSTAR":-0.0094118836,"MEAN_MOTION_DOT":-0.01615469,"MEAN_MOTION_DDOT":0},{"OBJECT_NAME":"STARLINK-36833","OBJECT_ID":"2026-044J","EPOCH":"2026-03-20T12:00:00.999648","MEAN_MOTION":15.81283438,"ECCENTRICITY":0.00015436,"INCLINATION":97.2843,"RA_OF_ASC_NODE":40.1781,"ARG_OF_PERICENTER":116.3285,"MEAN_ANOMALY":191.3167,"EPHEMERIS_TYPE":0,"CLASSIFICATION_TYPE":"U","NORAD_CAT_ID":68109,"ELEMENT_SET_NO":999,"REV_AT_EPOCH":313,"BSTAR":-0.0098614601,"MEAN_MOTION_DOT":-0.01677668,"MEAN_MOTION_DDOT":0},{"OBJECT_NAME":"STARLINK-36830","OBJECT_ID":"2026-044K","EPOCH":"2026-03-20T12:00:00.999648","MEAN_MOTION":15.81294053,"ECCENTRICITY":9.727e-5,"INCLINATION":97.2844,"RA_OF_ASC_NODE":40.1765,"ARG_OF_PERICENTER":125.6614,"MEAN_ANOMALY":177.7107,"EPHEMERIS_TYPE":0,"CLASSIFICATION_TYPE":"U","NORAD_CAT_ID":68110,"ELEMENT_SET_NO":999,"REV_AT_EPOCH":313,"BSTAR":-0.0095582016,"MEAN_MOTION_DOT":-0.01633044,"MEAN_MOTION_DDOT":0},{"OBJECT_NAME":"STARLINK-36791","OBJECT_ID":"2026-044L","EPOCH":"2026-03-20T12:00:00.999648","MEAN_MOTION":15.81053269,"ECCENTRICITY":0.00013132,"INCLINATION":97.2844,"RA_OF_ASC_NODE":40.181,"ARG_OF_PERICENTER":108.3072,"MEAN_ANOMALY":203.6301,"EPHEMERIS_TYPE":0,"CLASSIFICATION_TYPE":"U","NORAD_CAT_ID":68111,"ELEMENT_SET_NO":999,"REV_AT_EPOCH":309,"BSTAR":-0.0030521136,"MEAN_MOTION_DOT":-0.00555123,"MEAN_MOTION_DDOT":0},{"OBJECT_NAME":"STARLINK-36893","OBJECT_ID":"2026-044M","EPOCH":"2026-03-20T12:00:00.999648","MEAN_MOTION":15.80921556,"ECCENTRICITY":0.00014255,"INCLINATION":97.2843,"RA_OF_ASC_NODE":40.182,"ARG_OF_PERICENTER":87.9506,"MEAN_ANOMALY":228.2919,"EPHEMERIS_TYPE":0,"CLASSIFICATION_TYPE":"U","NORAD_CAT_ID":68112,"ELEMENT_SET_NO":999,"REV_AT_EPOCH":313,"BSTAR":-0.0010913532,"MEAN_MOTION_DOT":-0.00205346,"MEAN_MOTION_DDOT":0},{"OBJECT_NAME":"STARLINK-36937","OBJECT_ID":"2026-044N","EPOCH":"2026-03-20T12:00:00.999648","MEAN_MOTION":15.81129339,"ECCENTRICITY":0.00011063,"INCLINATION":97.2844,"RA_OF_ASC_NODE":40.1857,"ARG_OF_PERICENTER":119.1628,"MEAN_ANOMALY":205.595,"EPHEMERIS_TYPE":0,"CLASSIFICATION_TYPE":"U","NORAD_CAT_ID":68113,"ELEMENT_SET_NO":999,"REV_AT_EPOCH":309,"BSTAR":-0.0045967287,"MEAN_MOTION_DOT":-0.00814453,"MEAN_MOTION_DDOT":0},{"OBJECT_NAME":"STARLINK-36229","OBJECT_ID":"2026-044P","EPOCH":"2026-03-20T12:00:00.999648","MEAN_MOTION":15.80929419,"ECCENTRICITY":0.00012642,"INCLINATION":97.2842,"RA_OF_ASC_NODE":40.1828,"ARG_OF_PERICENTER":109.0158,"MEAN_ANOMALY":211.5046,"EPHEMERIS_TYPE":0,"CLASSIFICATION_TYPE":"U","NORAD_CAT_ID":68114,"ELEMENT_SET_NO":999,"REV_AT_EPOCH":313,"BSTAR":-0.0012858082,"MEAN_MOTION_DOT":-0.00241013,"MEAN_MOTION_DDOT":0},{"OBJECT_NAME":"STARLINK-36392","OBJECT_ID":"2026-044Q","EPOCH":"2026-03-20T12:00:00.999648","MEAN_MOTION":15.80944963,"ECCENTRICITY":0.00014974,"INCLINATION":97.2843,"RA_OF_ASC_NODE":40.1874,"ARG_OF_PERICENTER":101.4765,"MEAN_ANOMALY":227.5827,"EPHEMERIS_TYPE":0,"CLASSIFICATION_TYPE":"U","NORAD_CAT_ID":68115,"ELEMENT_SET_NO":999,"REV_AT_EPOCH":313,"BSTAR":-0.0016062985,"MEAN_MOTION_DOT":-0.002993,"MEAN_MOTION_DDOT":0},{"OBJECT_NAME":"STARLINK-36805","OBJECT_ID":"2026-044R","EPOCH":"2026-03-20T12:00:00.999648","MEAN_MOTION":15.81177431,"ECCENTRICITY":0.00011342,"INCLINATION":97.2843,"RA_OF_ASC_NODE":40.1888,"ARG_OF_PERICENTER":96.7518,"MEAN_ANOMALY":236.5467,"EPHEMERIS_TYPE":0,"CLASSIFICATION_TYPE":"U","NORAD_CAT_ID":68116,"ELEMENT_SET_NO":999,"REV_AT_EPOCH":313,"BSTAR":-0.0056040422,"MEAN_MOTION_DOT":-0.00976445,"MEAN_MOTION_DDOT":0},{"OBJECT_NAME":"STARLINK-36844","OBJECT_ID":"2026-044S","EPOCH":"2026-03-20T12:00:00.999648","MEAN_MOTION":15.80909009,"ECCENTRICITY":0.00015432,"INCLINATION":97.284,"RA_OF_ASC_NODE":40.1903,"ARG_OF_PERICENTER":84.0734,"MEAN_ANOMALY":253.5193,"EPHEMERIS_TYPE":0,"CLASSIFICATION_TYPE":"U","NORAD_CAT_ID":68117,"ELEMENT_SET_NO":999,"REV_AT_EPOCH":309,"BSTAR":-0.0007495477,"MEAN_MOTION_DOT":-0.00142015,"MEAN_MOTION_DDOT":0},{"OBJECT_NAME":"STARLINK-36789","OBJECT_ID":"2026-044T","EPOCH":"2026-03-20T12:00:00.999648","MEAN_MOTION":15.81029344,"ECCENTRICITY":0.00010978,"INCLINATION":97.2842,"RA_OF_ASC_NODE":40.1922,"ARG_OF_PERICENTER":103.7599,"MEAN_ANOMALY":238.1106,"EPHEMERIS_TYPE":0,"CLASSIFICATION_TYPE":"U","NORAD_CAT_ID":68118,"ELEMENT_SET_NO":999,"REV_AT_EPOCH":309,"BSTAR":-0.0028895772,"MEAN_MOTION_DOT":-0.00526648,"MEAN_MOTION_DDOT":0},{"OBJECT_NAME":"STARLINK-36850","OBJECT_ID":"2026-044U","EPOCH":"2026-03-20T12:00:00.999648","MEAN_MOTION":15.81219437,"ECCENTRICITY":0.00016126,"INCLINATION":97.2841,"RA_OF_ASC_NODE":40.194,"ARG_OF_PERICENTER":89.3126,"MEAN_ANOMALY":256.8051,"EPHEMERIS_TYPE":0,"CLASSIFICATION_TYPE":"U","NORAD_CAT_ID":68119,"ELEMENT_SET_NO":999,"REV_AT_EPOCH":309,"BSTAR":-0.0070286202,"MEAN_MOTION_DOT":-0.01218636,"MEAN_MOTION_DDOT":0},{"OBJECT_NAME":"STARLINK-36868","OBJECT_ID":"2026-044V","EPOCH":"2026-03-20T12:00:00.999648","MEAN_MOTION":15.80888421,"ECCENTRICITY":0.00014992,"INCLINATION":97.2838,"RA_OF_ASC_NODE":40.1959,"ARG_OF_PERICENTER":88.5549,"MEAN_ANOMALY":261.8936,"EPHEMERIS_TYPE":0,"CLASSIFICATION_TYPE":"U","NORAD_CAT_ID":68120,"ELEMENT_SET_NO":999,"REV_AT_EPOCH":309,"BSTAR":-0.0009342776,"MEAN_MOTION_DOT":-0.00176129,"MEAN_MOTION_DDOT":0},{"OBJECT_NAME":"STARLINK-36855","OBJECT_ID":"2026-044W","EPOCH":"2026-03-20T12:00:00.999648","MEAN_MOTION":15.80943236,"ECCENTRICITY":0.00016072,"INCLINATION":97.284,"RA_OF_ASC_NODE":40.1979,"ARG_OF_PERICENTER":96.6185,"MEAN_ANOMALY":258.0808,"EPHEMERIS_TYPE":0,"CLASSIFICATION_TYPE":"U","NORAD_CAT_ID":68121,"ELEMENT_SET_NO":999,"REV_AT_EPOCH":309,"BSTAR":-0.0014571639,"MEAN_MOTION_DOT":-0.00272338,"MEAN_MOTION_DDOT":0},{"OBJECT_NAME":"STARLINK-36366","OBJECT_ID":"2026-044X","EPOCH":"2026-03-20T12:00:00.999648","MEAN_MOTION":15.81111565,"ECCENTRICITY":0.00013279,"INCLINATION":97.2829,"RA_OF_ASC_NODE":40.1993,"ARG_OF_PERICENTER":85.5079,"MEAN_ANOMALY":273.45,"EPHEMERIS_TYPE":0,"CLASSIFICATION_TYPE":"U","NORAD_CAT_ID":68122,"ELEMENT_SET_NO":999,"REV_AT_EPOCH":313,"BSTAR":-0.004659715,"MEAN_MOTION_DOT":-0.00824089,"MEAN_MOTION_DDOT":0},{"OBJECT_NAME":"STARLINK-36922","OBJECT_ID":"2026-044Y","EPOCH":"2026-03-20T12:00:00.999648","MEAN_MOTION":15.80847798,"ECCENTRICITY":0.00016463,"INCLINATION":97.2828,"RA_OF_ASC_NODE":40.2034,"ARG_OF_PERICENTER":94.7728,"MEAN_ANOMALY":272.7768,"EPHEMERIS_TYPE":0,"CLASSIFICATION_TYPE":"U","NORAD_CAT_ID":68123,"ELEMENT_SET_NO":999,"REV_AT_EPOCH":313,"BSTAR":-0.00029194284,"MEAN_MOTION_DOT":-0.0005579,"MEAN_MOTION_DDOT":0}]
